# From MPEC 2015-M77
125P/Spacewatch,e,9.9866,153.1460,87.2339,3.126508,0.1782850,0.51241123,212.8648,12/03.0/2021,2000,g  9.0,4.0
# From MPC 66205
126P/IRAS,e,45.8750,357.8701,356.5490,5.637882,0.0736258,0.69636963,317.3486,12/03.0/2021,2000,g  9.0,4.0
# From MPC 84321
127P/Holt-Olmstead,e,14.2969,13.6185,6.3920,3.453823,0.1535515,0.36005060,321.4905,12/03.0/2021,2000,g 11.0,6.0
# From MPC 89014
128P/Shoemaker-Holt,e,4.3687,214.3061,210.2728,4.490921,0.1035621,0.32110024,185.2108,12/03.0/2021,2000,g  8.5,4.0
# From MPEC 2019-TG9
129P/Shoemaker-Levy,e,3.4421,184.8729,307.6293,4.285123,0.1111115,0.08425313,319.6044,12/03.0/2021,2000,g 11.0,4.0
# From MPC 78188
130P/McNaught-Hughes,e,6.0624,70.2099,246.0457,3.383636,0.1583538,0.46134697,223.2653,12/03.0/2021,2000,g 10.0,6.0
# From MPC102101
131P/Mueller,e,7.3574,214.1497,179.0283,3.680038,0.1396129,0.34420437,145.6627,12/03.0/2021,2000,g 11.0,4.0
# From MPEC 2021-WD8
132P/Helin-Roman-Alu,e,5.3826,173.9970,216.3489,3.885815,0.1286711,0.56462902,2.5588,12/03.0/2021,2000,g 11.0,6.0
# From MPC 94676
133P/Elst-Pizarro,e,1.3894,160.1007,131.8768,3.165199,0.1750260,0.15674649,204.4510,12/03.0/2021,2000,g 15.4,2.0
# From MPC 89012
134P/Kowal-Vavrova,e,4.3374,202.0642,18.8857,6.261936,0.0628986,0.58560800,173.4013,12/03.0/2021,2000,g 11.5,4.0
# From MPEC 2021-F20
135P/Shoemaker-Levy,e,6.0628,213.0244,22.3192,3.801867,0.1329562,0.29505860,343.3365,12/03.0/2021,2000,g  7.0,8.0
# From MPEC 2020-W26
136P/Mueller,e,9.4244,137.4475,224.9505,4.192094,0.1148306,0.29306727,230.6772,12/03.0/2021,2000,g 11.0,4.0
# From MPEC 2021-N06
137P/Shoemaker-Levy,e,4.8548,233.0043,141.0665,4.520777,0.1025379,0.57369473,111.2494,12/03.0/2021,2000,g 11.0,4.0
# From MPEC 2016-U66
138P/Shoemaker-Levy,e,10.0906,309.3227,95.5403,3.621526,0.1430101,0.53079735,135.1274,12/03.0/2021,2000,g 15.0,6.0
# From MPEC 2020-HN5
139P/Vaisala-Oterma,e,2.3347,242.1577,165.7138,4.521242,0.1025221,0.24715570,149.0594,12/03.0/2021,2000,g  9.5,4.0
# From MPEC 2015-E14
140P/Bowell-Skiff,e,3.8383,343.2543,172.8339,6.425626,0.0605105,0.69191648,139.9297,12/03.0/2021,2000,g 11.5,6.0
# From MPEC 2021-AJ0
141P/Machholz,e,13.9463,241.8308,153.5592,3.057449,0.1843594,0.73582832,64.8364,12/03.0/2021,2000,g 14.7,4.0
# From MPEC 2021-W31
142P/Ge-Wang,e,12.2514,175.9330,173.9670,4.999293,0.0881741,0.49730445,18.0151,12/03.0/2021,2000,g 15.1,4.0
# From MPEC 2021-W31
143P/Kowal-Mrkos,e,4.7001,245.1804,320.3522,4.280002,0.1113110,0.41110004,145.5982,12/03.0/2021,2000,g 13.5,2.0
# From MPC104795
144P/Kushida,e,3.9343,243.1522,216.3238,3.822501,0.1318812,0.63560792,256.6503,12/03.0/2021,2000,g  8.5,8.0
# From MPC108598
145P/Shoemaker-Levy,e,11.2761,26.7902,10.2409,4.137653,0.1171044,0.54177836,181.8769,12/03.0/2021,2000,g 13.5,4.0
# From MPC100284
146P/Shoemaker-LINEAR,e,23.1044,53.3867,316.9701,4.031430,0.1217630,0.64724403,241.1029,12/03.0/2021,2000,g 15.0,4.0
# From MPC 75720
147P/Kushida-Muramatsu,e,2.3191,92.6302,348.8110,4.020212,0.1222730,0.22416511,270.1852,12/03.0/2021,2000,g 14.0,4.0
# From MPEC 2021-WD8
148P/Anderson-LINEAR,e,3.6580,89.2137,8.0057,3.618666,0.1431797,0.54985946,332.4161,12/03.0/2021,2000,g 16.0,2.0
# From MPC 75720
149P/Mueller,e,34.8652,144.2840,31.3743,4.129037,0.1174711,0.32555354,140.9551,12/03.0/2021,2000,g  8.0,8.0
# From MPEC 2021-W31
150P/LONEOS,e,18.5058,272.3352,245.5969,3.879118,0.1290044,0.54758318,252.7743,12/03.0/2021,2000,g 13.5,4.0
# From MPEC 2015-Q71
151P/Helin,e,4.7288,143.1584,216.0620,5.763191,0.0712376,0.57369998,159.8819,12/03.0/2021,2000,g 10.0,6.0
# From MPEC 2021-F20
152P/Helin-Lawrence,e,9.8804,91.8585,163.9388,4.476589,0.1040598,0.30864000,355.6649,12/03.0/2021,2000,g 12.6,4.0
# From MPC 46101
153P/Ikeya-Zhang,e,27.9051,93.2360,34.9939,50.54299,0.0027429,0.98964264,0.0000,03/04.3617/2002,2000,g  9.0,4.0
# From MPC 87068
154P/Brewington,e,17.6332,343.0410,47.8506,4.801987,0.0936640,0.67589520,273.4704,12/03.0/2021,2000,g  2.5,12.0
# From MPEC 2021-F20
155P/Shoemaker,e,6.3972,97.1869,14.5994,6.574811,0.0584627,0.72621210,43.7958,12/03.0/2021,2000,g 13.8,4.0
# From MPEC 2021-O56
156P/Russell-LINEAR,e,17.2637,35.3556,0.4477,3.461398,0.1530477,0.61493058,58.1704,12/03.0/2021,2000,g 15.5,2.0
# From MPEC 2021-W31
157P/Tritton,e,12.4261,287.5959,154.9770,3.548352,0.1474565,0.55700335,318.6054,12/03.0/2021,2000,g 10.0,4.0
# From MPEC 2021-W31
158P/Kowal-LINEAR,e,7.9727,135.4851,174.4059,5.075605,0.0861931,0.05436728,15.6981,12/03.0/2021,2000,g  9.0,4.0
# From MPEC 2021-N06
159P/LONEOS,e,23.4703,54.9679,4.5594,5.853381,0.0695975,0.38197981,89.8387,12/03.0/2021,2000,g 10.0,4.0
# From MPEC 2021-J28
160P/LINEAR,e,15.6171,333.3590,12.7299,3.775189,0.1343680,0.52631896,98.2893,12/03.0/2021,2000,g 15.5,2.0
# From MPC 75721
161P/Hartley-IRAS,e,95.7952,1.5676,46.9715,7.722739,0.0459248,0.83496752,276.3379,12/03.0/2021,2000,g  8.5,6.0
# From MPEC 2021-W31
162P/SidingSpring,e,27.5563,30.8996,357.1562,3.091525,0.1813197,0.58301513,65.3006,12/03.0/2021,2000,g 12.0,4.0
# From MPEC 2021-S45
163P/NEAT,e,12.7098,102.0803,349.5852,3.766683,0.1348234,0.45200210,114.7292,12/03.0/2021,2000,g 14.5,4.0
# From MPEC 2021-F20
164P/Christensen,e,16.2593,88.2815,325.8361,3.656029,0.1409904,0.54033726,180.6582,12/03.0/2021,2000,g 11.0,4.0
# From MPC 75721
165P/LINEAR,e,15.8950,0.8593,125.9400,17.86774,0.0130497,0.61525216,102.7411,12/03.0/2021,2000,g 11.5,2.0
# From MPC 75722
166P/NEAT,e,15.3736,64.4151,321.4924,13.81630,0.0191918,0.38395664,136.9458,12/03.0/2021,2000,g  5.5,4.0
# From MPC 75722
167P/CINEOS,e,19.1165,295.6779,344.6320,16.22692,0.0150782,0.27150928,113.2383,12/03.0/2021,2000,g  9.5,2.0
# From MPC102101
168P/Hergenrother,e,21.6238,355.4517,15.0036,3.582343,0.1453628,0.62105702,123.6282,12/03.0/2021,2000,g 15.5,4.0
# From MPEC 2021-N06
169P/NEAT,e,11.2989,176.1086,218.0491,2.601349,0.2349125,0.76827119,308.6267,12/03.0/2021,2000,g 16.0,2.0
# From MPEC 2021-O56
170P/Christensen,e,10.1251,142.9222,225.6269,4.199504,0.1145268,0.30393637,302.2656,12/03.0/2021,2000,g 12.0,4.0
# From MPC102102
171P/Spahr,e,21.9367,101.6921,347.0628,3.554873,0.1470510,0.50169390,155.1045,12/03.0/2021,2000,g 13.5,4.0
# From MPEC 2021-WD8
172P/Yeung,e,11.2268,30.8860,209.3959,4.214187,0.1139288,0.20512928,196.7750,12/03.0/2021,2000,g 13.0,4.0
# From MPEC 2021-W31
173P/Mueller,e,16.4929,100.4006,29.1815,5.706323,0.0723052,0.26098504,359.0075,12/03.0/2021,2000,g  7.5,4.0
# From MPC 92985
174P/Echeclus,e,4.3436,173.2044,163.1868,10.72653,0.0280553,0.45742417,67.7001,12/03.0/2021,2000,g  9.4,2.0
# From MPC114608
175P/Hergenrother,e,5.8588,122.5013,59.5906,3.488271,0.1512825,0.43467564,118.4719,12/03.0/2021,2000,g 14.0,4.0
# From MPC 89015
176P/LINEAR,e,0.2346,345.9724,34.7788,3.195769,0.1725206,0.19314958,298.7874,12/03.0/2021,2000,g 15.1,2.0
# From MPEC 2020-L06
177P/Barnard,e,31.2359,272.1616,60.3319,24.44408,0.0081554,0.95532886,45.4141,12/03.0/2021,2000,g 15.0,4.0
# From MPEC 2021-F20
178P/Hug-Bell,e,11.0879,102.8668,297.7990,3.632287,0.1423750,0.48217808,71.7978,12/03.0/2021,2000,g 14.6,4.0
# From MPEC 2021-WD8
179P/Jedicke,e,19.8979,115.5161,296.8656,5.933419,0.0681941,0.30597774,347.8664,12/03.0/2021,2000,g  2.5,8.0
# From MPC100284
180P/NEAT,e,16.8642,84.5710,94.7565,3.864147,0.1297548,0.35302413,283.8915,12/03.0/2021,2000,g 11.0,4.0
# From MPC 89012
181P/Shoemaker-Levy,e,17.4856,35.4043,336.2314,3.874529,0.1292337,0.70065106,355.2506,12/03.0/2021,2000,g 11.5,4.0
# From MPEC 2014-J10
182P/LONEOS,e,16.2260,72.4623,54.2234,2.950947,0.1944294,0.66320360,328.8445,12/03.0/2021,2000,g 18.0,4.0
# From MPEC 2021-S45
183P/Korlevic-Juric,e,18.9029,4.1973,167.6189,4.562668,0.1011290,0.13142039,147.7752,12/03.0/2021,2000,g 12.5,2.0
# From MPEC 2020-W26
184P/Lovas,e,4.5734,173.2462,186.4836,3.794924,0.1333213,0.55105160,53.6937,12/03.0/2021,2000,g 13.5,4.0
# From MPC109593
185P/Petriew,e,14.0107,214.1041,181.8754,3.098565,0.1807021,0.69944675,253.9272,12/03.0/2021,2000,g 15.0,4.0
# From MPEC 2021-W31
186P/Garradd,e,28.8292,326.6135,273.0235,4.892550,0.0910754,0.12203422,94.3843,12/03.0/2021,2000,g  7.5,4.0
# From MPEC 2020-SI8
187P/LINEAR,e,13.6342,109.9132,131.7159,4.568324,0.1009413,0.15202635,131.1227,12/03.0/2021,2000,g  9.0,4.0
# From MPC106349
188P/LINEAR-Mueller,e,10.5259,358.9656,26.5691,4.373088,0.1077759,0.41621263,188.4321,12/03.0/2021,2000,g 11.5,4.0
# From MPC106349
189P/NEAT,e,20.0684,281.7230,16.3108,2.946029,0.1949164,0.58872660,307.6010,12/03.0/2021,2000,g 19.0,4.0
# From MPEC 2020-K19
190P/Mueller,e,2.1742,335.5735,50.2999,4.233048,0.1131682,0.52172981,233.5645,12/03.0/2021,2000,g 13.0,4.0
# From MPEC 2021-WD8
191P/McNaught,e,8.8424,98.2332,284.0344,3.635270,0.1421998,0.38591563,36.6603,12/03.0/2021,2000,g 13.0,4.0
# From MPC 75724
192P/Shoemaker-Levy,e,24.5690,51.6145,312.9948,6.474245,0.0598302,0.77337042,305.9519,12/03.0/2021,2000,g 15.0,4.0
# From MPEC 2021-WD8
193P/LINEAR-NEAT,e,10.6885,335.1743,8.0893,3.577794,0.1456401,0.39404023,14.5304,12/03.0/2021,2000,g 14.0,4.0
# From MPC 98566
194P/LINEAR,e,11.9044,349.7288,131.0720,4.030382,0.1218105,0.58146142,264.0887,12/03.0/2021,2000,g 16.0,4.0
# From MPEC 2021-S45
195P/Hill,e,36.3319,243.1256,249.2626,6.505069,0.0594054,0.31357182,280.8334,12/03.0/2021,2000,g  8.5,4.0
# From MPC 92985
196P/Tichy,e,19.2927,24.1422,12.1583,3.804526,0.1328169,0.42862580,316.0815,12/03.0/2021,2000,g 13.5,4.0
# From MPC 94676
197P/LINEAR,e,25.5300,66.3744,188.7503,2.867884,0.2029373,0.62946501,284.9731,12/03.0/2021,2000,g 16.5,2.0
# From NK 1596
198P/ODAS,e,1.3387,358.2511,69.1777,3.597999,0.1444151,0.44364635,156.6986,12/03.0/2021,2000,g  9.0,4.0
# From MPC 75725
199P/Shoemaker,e,24.9318,92.3696,191.7090,5.890861,0.0689344,0.50588679,317.7393,12/03.0/2021,2000,g 10.0,4.0
# From MPEC 2021-F20
200P/Larsen,e,12.0990,234.7772,134.1518,4.942739,0.0896918,0.33267512,76.9131,12/03.0/2021,2000,g  9.0,4.0
# From MPC 93588
201P/LONEOS,e,5.7391,19.7464,41.5473,3.354310,0.1604351,0.63708339,30.5337,12/03.0/2021,2000,g 14.0,4.0
# From MPEC 2021-N06
